{
  "type": "FeatureCollection",
  "features": [
    {
      "type": "Feature",
      "properties": {
        "norad_id": 41773,
        "name": "SKYSAT-C2",
        "group": "resource",
        "lat": -32.05901447587503,
        "lon": -167.5786160702418,
        "alt_km": 462.418478696236,
        "timestamp": "2025-12-18T13:51:49.318109+00:00",
        "meta_object_name": "SKYSAT-C2",
        "meta_object_id": "2016-058D",
        "meta_epoch": "2025-12-18T02:00:31.199616",
        "meta_mean_motion": 15.37390226,
        "meta_eccentricity": 0.00036555,
        "meta_inclination": 97.0354,
        "meta_ra_of_asc_node": 16.3844,
        "meta_arg_of_pericenter": 20.3786,
        "meta_mean_anomaly": 339.7604,
        "meta_ephemeris_type": 0,
        "meta_classification_type": "U",
        "meta_norad_cat_id": 41773,
        "meta_element_set_no": 999,
        "meta_rev_at_epoch": 51718,
        "meta_bstar": 0.00027445506,
        "meta_mean_motion_dot": 9.986e-05,
        "meta_mean_motion_ddot": 0,
        "tle_line1": "1 41773U 16058D   25352.08369444  .00009986  00000+0  27446-3 0  9994",
        "tle_line2": "2 41773  97.0354  16.3844 0003655  20.3786 339.7604 15.37390226517185"
      },
      "geometry": {
        "type": "Point",
        "coordinates": [
          -167.5786160702418,
          -32.05901447587503
        ]
      }
    },
    {
      "type": "Feature",
      "properties": {
        "norad_id": 41774,
        "name": "SKYSAT-C3",
        "group": "resource",
        "lat": -11.183237292033366,
        "lon": -155.32514828575395,
        "alt_km": 436.92037874757807,
        "timestamp": "2025-12-18T13:51:49.318119+00:00",
        "meta_object_name": "SKYSAT-C3",
        "meta_object_id": "2016-058E",
        "meta_epoch": "2025-12-18T02:09:18.146304",
        "meta_mean_motion": 15.445847,
        "meta_eccentricity": 0.00018411,
        "meta_inclination": 96.9292,
        "meta_ra_of_asc_node": 25.5873,
        "meta_arg_of_pericenter": 107.4284,
        "meta_mean_anomaly": 252.7167,
        "meta_ephemeris_type": 0,
        "meta_classification_type": "U",
        "meta_norad_cat_id": 41774,
        "meta_element_set_no": 999,
        "meta_rev_at_epoch": 51808,
        "meta_bstar": 0.00034245756,
        "meta_mean_motion_dot": 0.0001585,
        "meta_mean_motion_ddot": 0,
        "tle_line1": "1 41774U 16058E   25352.08979336  .00015850  00000+0  34246-3 0  9995",
        "tle_line2": "2 41774  96.9292  25.5873 0001841 107.4284 252.7167 15.44584700518082"
      },
      "geometry": {
        "type": "Point",
        "coordinates": [
          -155.32514828575395,
          -11.183237292033366
        ]
      }
    },
    {
      "type": "Feature",
      "properties": {
        "norad_id": 41785,
        "name": "ALSAT 1B",
        "group": "resource",
        "lat": -29.794557172945524,
        "lon": 8.606658598784382,
        "alt_km": 663.7844609448639,
        "timestamp": "2025-12-18T13:51:49.318129+00:00",
        "meta_object_name": "ALSAT 1B",
        "meta_object_id": "2016-059C",
        "meta_epoch": "2025-12-18T07:28:29.527104",
        "meta_mean_motion": 14.72080955,
        "meta_eccentricity": 0.00107719,
        "meta_inclination": 97.7812,
        "meta_ra_of_asc_node": 3.8614,
        "meta_arg_of_pericenter": 87.5119,
        "meta_mean_anomaly": 272.7322,
        "meta_ephemeris_type": 0,
        "meta_classification_type": "U",
        "meta_norad_cat_id": 41785,
        "meta_element_set_no": 999,
        "meta_rev_at_epoch": 49396,
        "meta_bstar": 4.6479206e-05,
        "meta_mean_motion_dot": 2.45e-06,
        "meta_mean_motion_ddot": 0,
        "tle_line1": "1 41785U 16059C   25352.31145286  .00000245  00000+0  46479-4 0  9997",
        "tle_line2": "2 41785  97.7812   3.8614 0010771  87.5119 272.7322 14.72080955493967"
      },
      "geometry": {
        "type": "Point",
        "coordinates": [
          8.606658598784382,
          -29.794557172945524
        ]
      }
    },
    {
      "type": "Feature",
      "properties": {
        "norad_id": 41787,
        "name": "PATHFINDER 1",
        "group": "resource",
        "lat": -50.73706243785439,
        "lon": 4.751279164561524,
        "alt_km": 685.3036735451906,
        "timestamp": "2025-12-18T13:51:49.318140+00:00",
        "meta_object_name": "PATHFINDER 1",
        "meta_object_id": "2016-059E",
        "meta_epoch": "2025-12-18T05:54:52.140384",
        "meta_mean_motion": 14.67330848,
        "meta_eccentricity": 0.00299185,
        "meta_inclination": 97.8136,
        "meta_ra_of_asc_node": 354.7645,
        "meta_arg_of_pericenter": 64.47,
        "meta_mean_anomaly": 295.9594,
        "meta_ephemeris_type": 0,
        "meta_classification_type": "U",
        "meta_norad_cat_id": 41787,
        "meta_element_set_no": 999,
        "meta_rev_at_epoch": 49317,
        "meta_bstar": 0.00012363224,
        "meta_mean_motion_dot": 6.56e-06,
        "meta_mean_motion_ddot": 0,
        "tle_line1": "1 41787U 16059E   25352.24643681  .00000656  00000+0  12363-3 0  9993",
        "tle_line2": "2 41787  97.8136 354.7645 0029918  64.4700 295.9594 14.67330848493178"
      },
      "geometry": {
        "type": "Point",
        "coordinates": [
          4.751279164561524,
          -50.73706243785439
        ]
      }
    },
    {
      "type": "Feature",
      "properties": {
        "norad_id": 41790,
        "name": "SCATSAT 1",
        "group": "resource",
        "lat": -6.313672526440755,
        "lon": -131.58738651438608,
        "alt_km": 627.1235255462898,
        "timestamp": "2025-12-18T13:51:49.318150+00:00",
        "meta_object_name": "SCATSAT 1",
        "meta_object_id": "2016-059H",
        "meta_epoch": "2025-12-18T03:17:13.990272",
        "meta_mean_motion": 14.78954319,
        "meta_eccentricity": 0.00564039,
        "meta_inclination": 98.1458,
        "meta_ra_of_asc_node": 48.8745,
        "meta_arg_of_pericenter": 110.9556,
        "meta_mean_anomaly": 249.7703,
        "meta_ephemeris_type": 0,
        "meta_classification_type": "U",
        "meta_norad_cat_id": 41790,
        "meta_element_set_no": 999,
        "meta_rev_at_epoch": 7482,
        "meta_bstar": 0.0001683291,
        "meta_mean_motion_dot": 1.219e-05,
        "meta_mean_motion_ddot": 0,
        "tle_line1": "1 41790U 16059H   25352.13696748  .00001219  00000+0  16833-3 0  9999",
        "tle_line2": "2 41790  98.1458  48.8745 0056403 110.9556 249.7703 14.78954319 74823"
      },
      "geometry": {
        "type": "Point",
        "coordinates": [
          -131.58738651438608,
          -6.313672526440755
        ]
      }
    },
    {
      "type": "Feature",
      "properties": {
        "norad_id": 41875,
        "name": "GOKTURK 1A",
        "group": "resource",
        "lat": -67.60725050036653,
        "lon": -94.7993233762542,
        "alt_km": 692.1846173898912,
        "timestamp": "2025-12-18T13:51:49.318161+00:00",
        "meta_object_name": "GOKTURK 1A",
        "meta_object_id": "2016-073A",
        "meta_epoch": "2025-12-18T05:58:14.270592",
        "meta_mean_motion": 14.62786205,
        "meta_eccentricity": 0.0001249,
        "meta_inclination": 98.1433,
        "meta_ra_of_asc_node": 244.5404,
        "meta_arg_of_pericenter": 79.5185,
        "meta_mean_anomaly": 280.6158,
        "meta_ephemeris_type": 0,
        "meta_classification_type": "U",
        "meta_norad_cat_id": 41875,
        "meta_element_set_no": 999,
        "meta_rev_at_epoch": 48237,
        "meta_bstar": 0.00010390178,
        "meta_mean_motion_dot": 4.83e-06,
        "meta_mean_motion_ddot": 0,
        "tle_line1": "1 41875U 16073A   25352.24877628  .00000483  00000+0  10390-3 0  9993",
        "tle_line2": "2 41875  98.1433 244.5404 0001249  79.5185 280.6158 14.62786205482374"
      },
      "geometry": {
        "type": "Point",
        "coordinates": [
          -94.7993233762542,
          -67.60725050036653
        ]
      }
    },
    {
      "type": "Feature",
      "properties": {
        "norad_id": 41877,
        "name": "RESOURCESAT-2A",
        "group": "resource",
        "lat": -15.759215021170993,
        "lon": -120.09871545917588,
        "alt_km": 823.8331501432895,
        "timestamp": "2025-12-18T13:51:49.318172+00:00",
        "meta_object_name": "RESOURCESAT-2A",
        "meta_object_id": "2016-074A",
        "meta_epoch": "2025-12-18T06:11:18.664224",
        "meta_mean_motion": 14.21602085,
        "meta_eccentricity": 0.00013469,
        "meta_inclination": 98.7755,
        "meta_ra_of_asc_node": 62.0818,
        "meta_arg_of_pericenter": 228.1311,
        "meta_mean_anomaly": 131.9752,
        "meta_ephemeris_type": 0,
        "meta_classification_type": "U",
        "meta_norad_cat_id": 41877,
        "meta_element_set_no": 999,
        "meta_rev_at_epoch": 46859,
        "meta_bstar": 0.00013131429,
        "meta_mean_motion_dot": 2.44e-06,
        "meta_mean_motion_ddot": 0,
        "tle_line1": "1 41877U 16074A   25352.25785491  .00000244  00000+0  13131-3 0  9994",
        "tle_line2": "2 41877  98.7755  62.0818 0001346 228.1311 131.9752 14.21602085468596"
      },
      "geometry": {
        "type": "Point",
        "coordinates": [
          -120.09871545917588,
          -15.759215021170993
        ]
      }
    }
  ]
}